QZS-1R                  
1 49336U 21096A   24107.84112913 -.00000231  00000+0  00000+0 0  9991
2 49336  35.8201  91.4529 0752133 270.3221 281.4595  1.00280734  9068
